{"type": "FeatureCollection", "features": [ {"type": "Feature", "properties": {"norad_id": 40701, "name": "GAOFEN-8", "group": "resource", "lat": 67.72097931190318, "lon": 150.78304546022056, "alt_km": 438.41600842361004, "timestamp": "2025-12-17T15:50:09.434091+00:00", "meta": {"OBJECT_NAME": "GAOFEN-8", "OBJECT_ID": "2015-030A", "EPOCH": "2025-12-17T07:43:59.818368", "MEAN_MOTION": 15.38700254, "ECCENTRICITY": 0.00118474, "INCLINATION": 97.6898, "RA_OF_ASC_NODE": 169.6857, "ARG_OF_PERICENTER": 122.7413, "MEAN_ANOMALY": 237.4975, "EPHEMERIS_TYPE": 0, "CLASSIFICATION_TYPE": "U", "NORAD_CAT_ID": 40701, "ELEMENT_SET_NO": 999, "REV_AT_EPOCH": 58341, "BSTAR": 0.00037584235, "MEAN_MOTION_DOT": 0.00014327, "MEAN_MOTION_DDOT": 0}, "tle": {"line1": "1 40701U 15030A   25351.32222012  .00014327  00000+0  37584-3 0  9997", "line2": "2 40701  97.6898 169.6857 0011847 122.7413 237.4975 15.38700254583417"}}, "geometry": {"type": "Point", "coordinates": [150.78304546022056, 67.72097931190318]}}, {"type": "Feature", "properties": {"norad_id": 40718, "name": "CARBONITE 1 (CBNT-1)", "group": "resource", "lat": 82.06601229868997, "lon": 66.87691747853934, "alt_km": 610.1448191681075, "timestamp": "2025-12-17T15:50:09.434101+00:00", "meta": {"OBJECT_NAME": "CARBONITE 1 (CBNT-1)", "OBJECT_ID": "2015-032D", "EPOCH": "2025-12-17T07:19:24.703392", "MEAN_MOTION": 14.82763664, "ECCENTRICITY": 0.00146956, "INCLINATION": 97.6398, "RA_OF_ASC_NODE": 172.1474, "ARG_OF_PERICENTER": 166.3642, "MEAN_ANOMALY": 193.7972, "EPHEMERIS_TYPE": 0, "CLASSIFICATION_TYPE": "U", "NORAD_CAT_ID": 40718, "ELEMENT_SET_NO": 999, "REV_AT_EPOCH": 56238, "BSTAR": 0.00013075721, "MEAN_MOTION_DOT": 1.008e-05, "MEAN_MOTION_DDOT": 0}, "tle": {"line1": "1 40718U 15032D   25351.30514703  .00001008  00000+0  13076-3 0  9998", "line2": "2 40718  97.6398 172.1474 0014695 166.3642 193.7972 14.82763664562382"}}, "geometry": {"type": "Point", "coordinates": [66.87691747853934, 82.06601229868997]}}, {"type": "Feature", "properties": {"norad_id": 40878, "name": "YAOGAN-27", "group": "resource", "lat": 77.58781586458963, "lon": -73.02680580224647, "alt_km": 1198.0758190856513, "timestamp": "2025-12-17T15:50:09.434112+00:00", "meta": {"OBJECT_NAME": "YAOGAN-27", "OBJECT_ID": "2015-040A", "EPOCH": "2025-12-17T06:17:38.878656", "MEAN_MOTION": 13.16061154, "ECCENTRICITY": 0.00075846, "INCLINATION": 100.1008, "RA_OF_ASC_NODE": 340.6778, "ARG_OF_PERICENTER": 275.6586, "MEAN_ANOMALY": 84.3663, "EPHEMERIS_TYPE": 0, "CLASSIFICATION_TYPE": "U", "NORAD_CAT_ID": 40878, "ELEMENT_SET_NO": 999, "REV_AT_EPOCH": 49373, "BSTAR": 0.00080183794, "MEAN_MOTION_DOT": 2.62e-06, "MEAN_MOTION_DDOT": 0}, "tle": {"line1": "1 40878U 15040A   25351.26225554  .00000262  00000+0  80184-3 0  9997", "line2": "2 40878 100.1008 340.6778 0007584 275.6586  84.3663 13.16061154493731"}}, "geometry": {"type": "Point", "coordinates": [-73.02680580224647, 77.58781586458963]}}, {"type": "Feature", "properties": {"norad_id": 40894, "name": "GAOFEN-9 01", "group": "resource", "lat": 7.052904520411999, "lon": 29.449487335220343, "alt_km": 604.4723172648719, "timestamp": "2025-12-17T15:50:09.434122+00:00", "meta": {"OBJECT_NAME": "GAOFEN-9 01", "OBJECT_ID": "2015-047A", "EPOCH": "2025-12-17T07:42:15.735744", "MEAN_MOTION": 14.82433792, "ECCENTRICITY": 0.00280285, "INCLINATION": 97.6537, "RA_OF_ASC_NODE": 30.0786, "ARG_OF_PERICENTER": 19.6596, "MEAN_ANOMALY": 340.5692, "EPHEMERIS_TYPE": 0, "CLASSIFICATION_TYPE": "U", "NORAD_CAT_ID": 40894, "ELEMENT_SET_NO": 999, "REV_AT_EPOCH": 55324, "BSTAR": 0.00013161748, "MEAN_MOTION_DOT": 1.011e-05, "MEAN_MOTION_DDOT": 0}, "tle": {"line1": "1 40894U 15047A   25351.32101546  .00001011  00000+0  13162-3 0  9998", "line2": "2 40894  97.6537  30.0786 0028028  19.6596 340.5692 14.82433792553245"}}, "geometry": {"type": "Point", "coordinates": [29.449487335220343, 7.052904520411999]}}, {"type": "Feature", "properties": {"norad_id": 41026, "name": "YAOGAN-28", "group": "resource", "lat": -1.0616203126589614, "lon": -50.822741587266414, "alt_km": 492.8674385886352, "timestamp": "2025-12-17T15:50:09.434133+00:00", "meta": {"OBJECT_NAME": "YAOGAN-28", "OBJECT_ID": "2015-064A", "EPOCH": "2025-12-17T08:44:39.737184", "MEAN_MOTION": 15.24430429, "ECCENTRICITY": 0.00125544, "INCLINATION": 97.2803, "RA_OF_ASC_NODE": 129.0259, "ARG_OF_PERICENTER": 111.2423, "MEAN_ANOMALY": 249.0157, "EPHEMERIS_TYPE": 0, "CLASSIFICATION_TYPE": "U", "NORAD_CAT_ID": 41026, "ELEMENT_SET_NO": 999, "REV_AT_EPOCH": 56295, "BSTAR": 0.00026810417, "MEAN_MOTION_DOT": 6.522e-05, "MEAN_MOTION_DDOT": 0}, "tle": {"line1": "1 41026U 15064A   25351.36434881  .00006522  00000+0  26810-3 0  9996", "line2": "2 41026  97.2803 129.0259 0012554 111.2423 249.0157 15.24430429562952"}}, "geometry": {"type": "Point", "coordinates": [-50.822741587266414, -1.0616203126589614]}}, {"type": "Feature", "properties": {"norad_id": 41038, "name": "YAOGAN-29", "group": "resource", "lat": -79.60049733505207, "lon": 144.63411528741332, "alt_km": 627.4846203681036, "timestamp": "2025-12-17T15:50:09.434143+00:00", "meta": {"OBJECT_NAME": "YAOGAN-29", "OBJECT_ID": "2015-069A", "EPOCH": "2025-12-17T08:10:26.487840", "MEAN_MOTION": 14.82886235, "ECCENTRICITY": 2.74e-05, "INCLINATION": 98.022, "RA_OF_ASC_NODE": 14.5275, "ARG_OF_PERICENTER": 201.8229, "MEAN_ANOMALY": 158.2973, "EPHEMERIS_TYPE": 0, "CLASSIFICATION_TYPE": "U", "NORAD_CAT_ID": 41038, "ELEMENT_SET_NO": 999, "REV_AT_EPOCH": 54367, "BSTAR": 3.250751e-06, "MEAN_MOTION_DOT": -2.8e-07, "MEAN_MOTION_DDOT": 0}, "tle": {"line1": "1 41038U 15069A   25351.34058435 -.00000028  00000+0  32508-5 0  9998", "line2": "2 41038  98.0220  14.5275 0000274 201.8229 158.2973 14.82886235543677"}}, "geometry": {"type": "Point", "coordinates": [144.63411528741332, -79.60049733505207]}}, {"type": "Feature", "properties": {"norad_id": 41167, "name": "KENT RIDGE 1", "group": "resource", "lat": -4.5772265578467, "lon": 12.060832944258062, "alt_km": 492.77663363506053, "timestamp": "2025-12-17T15:50:09.434154+00:00", "meta": {"OBJECT_NAME": "KENT RIDGE 1", "OBJECT_ID": "2015-077B", "EPOCH": "2025-12-17T03:57:31.233312", "MEAN_MOTION": 15.21671932, "ECCENTRICITY": 0.00084828, "INCLINATION": 14.978, "RA_OF_ASC_NODE": 178.304, "ARG_OF_PERICENTER": 193.5455, "MEAN_ANOMALY": 166.4639, "EPHEMERIS_TYPE": 0, "CLASSIFICATION_TYPE": "U", "NORAD_CAT_ID": 41167, "ELEMENT_SET_NO": 999, "REV_AT_EPOCH": 55331, "BSTAR": 0.00014001964, "MEAN_MOTION_DOT": 4.017e-05, "MEAN_MOTION_DDOT": 0}, "tle": {"line1": "1 41167U 15077B   25351.16494483  .00004017  00000+0  14002-3 0  9995", "line2": "2 41167  14.9780 178.3040 0008482 193.5455 166.4639 15.21671932553316"}}, "geometry": {"type": "Point", "coordinates": [12.060832944258062, -4.5772265578467]}}, {"type": "Feature", "properties": {"norad_id": 41194, "name": "GAOFEN-4", "group": "resource", "lat": -0.01062864167867721, "lon": 69.72832875607173, "alt_km": 35789.12993564936, "timestamp": "2025-12-17T15:50:09.434166+00:00", "meta": {"OBJECT_NAME": "GAOFEN-4", "OBJECT_ID": "2015-083A", "EPOCH": "2025-12-16T16:30:21.701088", "MEAN_MOTION": 1.0027459, "ECCENTRICITY": 0.00029122, "INCLINATION": 0.1803, "RA_OF_ASC_NODE": 81.6263, "ARG_OF_PERICENTER": 95.6325, "MEAN_ANOMALY": 261.5967, "EPHEMERIS_TYPE": 0, "CLASSIFICATION_TYPE": "U", "NORAD_CAT_ID": 41194, "ELEMENT_SET_NO": 999, "REV_AT_EPOCH": 3669, "BSTAR": 0, "MEAN_MOTION_DOT": -3.11e-06, "MEAN_MOTION_DDOT": 0}, "tle": {"line1": "1 41194U 15083A   25350.68775117 -.00000311  00000+0  00000+0 0  9997", "line2": "2 41194   0.1803  81.6263 0002912  95.6325 261.5967  1.00274590 36691"}}, "geometry": {"type": "Point", "coordinates": [69.72832875607173, -0.01062864167867721]}}, {"type": "Feature", "properties": {"norad_id": 41240, "name": "JASON-3", "group": "resource", "lat": 62.49197651887168, "lon": -153.88396070432964, "alt_km": 1309.3260657113951, "timestamp": "2025-12-17T15:50:09.434177+00:00", "meta": {"OBJECT_NAME": "JASON-3", "OBJECT_ID": "2016-002A", "EPOCH": "2025-12-17T04:15:27.302976", "MEAN_MOTION": 12.87626743, "ECCENTRICITY": 0.00071763, "INCLINATION": 66.0395, "RA_OF_ASC_NODE": 148.4944, "ARG_OF_PERICENTER": 271.082, "MEAN_ANOMALY": 88.9376, "EPHEMERIS_TYPE": 0, "CLASSIFICATION_TYPE": "U", "NORAD_CAT_ID": 41240, "ELEMENT_SET_NO": 999, "REV_AT_EPOCH": 46381, "BSTAR": 5.7893109e-05, "MEAN_MOTION_DOT": -4.8e-07, "MEAN_MOTION_DDOT": 0}, "tle": {"line1": "1 41240U 16002A   25351.17739934 -.00000048  00000+0  57893-4 0  9997", "line2": "2 41240  66.0395 148.4944 0007176 271.0820  88.9376 12.87626743463816"}}, "geometry": {"type": "Point", "coordinates": [-153.88396070432964, 62.49197651887168]}}, {"type": "Feature", "properties": {"norad_id": 41335, "name": "SENTINEL-3A", "group": "resource", "lat": 48.73385211398454, "lon": 46.635527605550976, "alt_km": 797.7553036837007, "timestamp": "2025-12-17T15:50:09.434188+00:00", "meta": {"OBJECT_NAME": "SENTINEL-3A", "OBJECT_ID": "2016-011A", "EPOCH": "2025-12-17T07:11:21.145056", "MEAN_MOTION": 14.26732466, "ECCENTRICITY": 9.187e-05, "INCLINATION": 98.631, "RA_OF_ASC_NODE": 56.2481, "ARG_OF_PERICENTER": 92.4376, "MEAN_ANOMALY": 267.691, "EPHEMERIS_TYPE": 0, "CLASSIFICATION_TYPE": "U", "NORAD_CAT_ID": 41335, "ELEMENT_SET_NO": 999, "REV_AT_EPOCH": 51212, "BSTAR": 6.5493938e-05, "MEAN_MOTION_DOT": 1.15e-06, "MEAN_MOTION_DDOT": 0}, "tle": {"line1": "1 41335U 16011A   25351.29955029  .00000115  00000+0  65494-4 0  9990", "line2": "2 41335  98.6310  56.2481 0000918  92.4376 267.6910 14.26732466512123"}}, "geometry": {"type": "Point", "coordinates": [46.635527605550976, 48.73385211398454]}}]}